{
  "type": "FeatureCollection",
  "features": [
    {
      "type": "Feature",
      "properties": {
        "norad_id": 30127,
        "name": "FENGYUN 1C DEB",
        "group": "fengyun-1c-debris",
        "lat": -40.887878125681546,
        "lon": -139.37895968180536,
        "alt_km": 769.0441400859827,
        "timestamp": "2025-12-23T09:49:07.357147+00:00",
        "meta_object_name": "FENGYUN 1C DEB",
        "meta_object_id": "1999-025SG",
        "meta_epoch": "2025-12-22T20:39:04.630464",
        "meta_mean_motion": 14.38126393,
        "meta_eccentricity": 0.00858936,
        "meta_inclination": 98.2057,
        "meta_ra_of_asc_node": 212.9195,
        "meta_arg_of_pericenter": 48.8179,
        "meta_mean_anomaly": 312.0376,
        "meta_ephemeris_type": 0,
        "meta_classification_type": "U",
        "meta_norad_cat_id": 30127,
        "meta_element_set_no": 999,
        "meta_rev_at_epoch": 97381,
        "meta_bstar": 0.0023892601,
        "meta_mean_motion_dot": 7.527e-05,
        "meta_mean_motion_ddot": 0,
        "tle_line1": "1 30127U 99025SG  25356.86047026  .00007527  00000+0  23893-2 0  9999",
        "tle_line2": "2 30127  98.2057 212.9195 0085893  48.8179 312.0376 14.38126393973815"
      },
      "geometry": {
        "type": "Point",
        "coordinates": [
          -139.37895968180536,
          -40.887878125681546
        ]
      }
    },
    {
      "type": "Feature",
      "properties": {
        "norad_id": 30128,
        "name": "FENGYUN 1C DEB",
        "group": "fengyun-1c-debris",
        "lat": -67.54477002323614,
        "lon": 157.03888918398295,
        "alt_km": 815.4932951635301,
        "timestamp": "2025-12-23T09:49:07.357158+00:00",
        "meta_object_name": "FENGYUN 1C DEB",
        "meta_object_id": "1999-025SH",
        "meta_epoch": "2025-12-22T16:21:07.312032",
        "meta_mean_motion": 14.46269689,
        "meta_eccentricity": 0.01075492,
        "meta_inclination": 96.9798,
        "meta_ra_of_asc_node": 353.6812,
        "meta_arg_of_pericenter": 93.702,
        "meta_mean_anomaly": 327.414,
        "meta_ephemeris_type": 0,
        "meta_classification_type": "U",
        "meta_norad_cat_id": 30128,
        "meta_element_set_no": 999,
        "meta_rev_at_epoch": 97455,
        "meta_bstar": 0.0025649297,
        "meta_mean_motion_dot": 9.849e-05,
        "meta_mean_motion_ddot": 0,
        "tle_line1": "1 30128U 99025SH  25356.68133463  .00009849  00000+0  25649-2 0  9991",
        "tle_line2": "2 30128  96.9798 353.6812 0107549  93.7020 327.4140 14.46269689974555"
      },
      "geometry": {
        "type": "Point",
        "coordinates": [
          157.03888918398295,
          -67.54477002323614
        ]
      }
    },
    {
      "type": "Feature",
      "properties": {
        "norad_id": 30129,
        "name": "FENGYUN 1C DEB",
        "group": "fengyun-1c-debris",
        "lat": -66.35982608822569,
        "lon": -43.19116687570446,
        "alt_km": 981.6401789910697,
        "timestamp": "2025-12-23T09:49:07.357168+00:00",
        "meta_object_name": "FENGYUN 1C DEB",
        "meta_object_id": "1999-025SJ",
        "meta_epoch": "2025-12-21T19:01:35.390208",
        "meta_mean_motion": 14.01595893,
        "meta_eccentricity": 0.01884239,
        "meta_inclination": 98.0301,
        "meta_ra_of_asc_node": 296.5705,
        "meta_arg_of_pericenter": 66.7764,
        "meta_mean_anomaly": 356.1987,
        "meta_ephemeris_type": 0,
        "meta_classification_type": "U",
        "meta_norad_cat_id": 30129,
        "meta_element_set_no": 999,
        "meta_rev_at_epoch": 96605,
        "meta_bstar": 0.00053841328,
        "meta_mean_motion_dot": 9.17e-06,
        "meta_mean_motion_ddot": 0,
        "tle_line1": "1 30129U 99025SJ  25355.79277072  .00000917  00000+0  53841-3 0  9991",
        "tle_line2": "2 30129  98.0301 296.5705 0188423  66.7764 356.1987 14.01595893966054"
      },
      "geometry": {
        "type": "Point",
        "coordinates": [
          -43.19116687570446,
          -66.35982608822569
        ]
      }
    },
    {
      "type": "Feature",
      "properties": {
        "norad_id": 30131,
        "name": "FENGYUN 1C DEB",
        "group": "fengyun-1c-debris",
        "lat": 37.271976305573844,
        "lon": 82.54983322940295,
        "alt_km": 818.7306126296171,
        "timestamp": "2025-12-23T09:49:07.357178+00:00",
        "meta_object_name": "FENGYUN 1C DEB",
        "meta_object_id": "1999-025SL",
        "meta_epoch": "2025-12-22T05:00:43.211808",
        "meta_mean_motion": 14.21282184,
        "meta_eccentricity": 0.00822863,
        "meta_inclination": 99.0752,
        "meta_ra_of_asc_node": 88.3033,
        "meta_arg_of_pericenter": 132.2941,
        "meta_mean_anomaly": 248.5935,
        "meta_ephemeris_type": 0,
        "meta_classification_type": "U",
        "meta_norad_cat_id": 30131,
        "meta_element_set_no": 999,
        "meta_rev_at_epoch": 96823,
        "meta_bstar": 0.0023825735,
        "meta_mean_motion_dot": 5.331e-05,
        "meta_mean_motion_ddot": 0,
        "tle_line1": "1 30131U 99025SL  25356.20883347  .00005331  00000+0  23826-2 0  9993",
        "tle_line2": "2 30131  99.0752  88.3033 0082286 132.2941 248.5935 14.21282184968232"
      },
      "geometry": {
        "type": "Point",
        "coordinates": [
          82.54983322940295,
          37.271976305573844
        ]
      }
    },
    {
      "type": "Feature",
      "properties": {
        "norad_id": 30132,
        "name": "FENGYUN 1C DEB",
        "group": "fengyun-1c-debris",
        "lat": 77.21385014015208,
        "lon": 179.47386513732587,
        "alt_km": 886.5101263935003,
        "timestamp": "2025-12-23T09:49:07.357188+00:00",
        "meta_object_name": "FENGYUN 1C DEB",
        "meta_object_id": "1999-025SM",
        "meta_epoch": "2025-12-22T19:43:24.681216",
        "meta_mean_motion": 13.94862804,
        "meta_eccentricity": 0.0105662,
        "meta_inclination": 99.579,
        "meta_ra_of_asc_node": 310.783,
        "meta_arg_of_pericenter": 22.8449,
        "meta_mean_anomaly": 6.9142,
        "meta_ephemeris_type": 0,
        "meta_classification_type": "U",
        "meta_norad_cat_id": 30132,
        "meta_element_set_no": 999,
        "meta_rev_at_epoch": 96230,
        "meta_bstar": 0.00050186616,
        "meta_mean_motion_dot": 6.58e-06,
        "meta_mean_motion_ddot": 0,
        "tle_line1": "1 30132U 99025SM  25356.82181344  .00000658  00000+0  50187-3 0  9998",
        "tle_line2": "2 30132  99.5790 310.7830 0105662  22.8449   6.9142 13.94862804962308"
      },
      "geometry": {
        "type": "Point",
        "coordinates": [
          179.47386513732587,
          77.21385014015208
        ]
      }
    },
    {
      "type": "Feature",
      "properties": {
        "norad_id": 30133,
        "name": "FENGYUN 1C DEB",
        "group": "fengyun-1c-debris",
        "lat": 72.65818084214949,
        "lon": 135.29620034564172,
        "alt_km": 920.1895218303325,
        "timestamp": "2025-12-23T09:49:07.357222+00:00",
        "meta_object_name": "FENGYUN 1C DEB",
        "meta_object_id": "1999-025SN",
        "meta_epoch": "2025-12-21T22:13:24.831840",
        "meta_mean_motion": 14.06712256,
        "meta_eccentricity": 0.0085947,
        "meta_inclination": 98.3241,
        "meta_ra_of_asc_node": 161.8906,
        "meta_arg_of_pericenter": 234.4064,
        "meta_mean_anomaly": 254.1547,
        "meta_ephemeris_type": 0,
        "meta_classification_type": "U",
        "meta_norad_cat_id": 30133,
        "meta_element_set_no": 999,
        "meta_rev_at_epoch": 96507,
        "meta_bstar": 0.0015458667,
        "meta_mean_motion_dot": 2.616e-05,
        "meta_mean_motion_ddot": 0,
        "tle_line1": "1 30133U 99025SN  25355.92598185  .00002616  00000+0  15459-2 0  9992",
        "tle_line2": "2 30133  98.3241 161.8906 0085947 234.4064 254.1547 14.06712256965075"
      },
      "geometry": {
        "type": "Point",
        "coordinates": [
          135.29620034564172,
          72.65818084214949
        ]
      }
    },
    {
      "type": "Feature",
      "properties": {
        "norad_id": 30134,
        "name": "FENGYUN 1C DEB",
        "group": "fengyun-1c-debris",
        "lat": -80.66818946133057,
        "lon": 84.73114685071987,
        "alt_km": 862.1718848685805,
        "timestamp": "2025-12-23T09:49:07.357234+00:00",
        "meta_object_name": "FENGYUN 1C DEB",
        "meta_object_id": "1999-025SP",
        "meta_epoch": "2025-12-22T19:47:22.524000",
        "meta_mean_motion": 14.13364827,
        "meta_eccentricity": 0.0019417,
        "meta_inclination": 98.6929,
        "meta_ra_of_asc_node": 15.5686,
        "meta_arg_of_pericenter": 155.2092,
        "meta_mean_anomaly": 25.4236,
        "meta_ephemeris_type": 0,
        "meta_classification_type": "U",
        "meta_norad_cat_id": 30134,
        "meta_element_set_no": 999,
        "meta_rev_at_epoch": 97388,
        "meta_bstar": 0.00040345928,
        "meta_mean_motion_dot": 7.16e-06,
        "meta_mean_motion_ddot": 0,
        "tle_line1": "1 30134U 99025SP  25356.82456625  .00000716  00000+0  40346-3 0  9998",
        "tle_line2": "2 30134  98.6929  15.5686 0019417 155.2092  25.4236 14.13364827973889"
      },
      "geometry": {
        "type": "Point",
        "coordinates": [
          84.73114685071987,
          -80.66818946133057
        ]
      }
    }
  ]
}